SENTINEL-6A             
1 46984U 20086A   26201.97043766 -.00000063  00000+0 -70968-5 0  9995
2 46984  66.0410  64.8847 0007785 269.6488  90.3636 12.80930249264655
SENTINEL-6B             
1 66514U 25264A   26201.97078559 -.00000061  00000+0  20356-5 0  9990
2 66514  66.0410  65.0102 0007838 268.4946  91.5171 12.80930276 31499
